GOES 9                  
1 23581U 95025A   09078.75116250 -.00000223  00000-0  10000-3 0  9960
2 23581   5.0858  71.7316 0004310 263.8711  96.2718  0.98802730 50542
SARSAT 7 (NOAA 15)      
1 25338U 98030A   09078.16201946 -.00000011  00000-0  13933-4 0  8573
2 25338  98.5810  69.3677 0010111 325.4527  34.6028 14.24749472563959
GOES 11                 
1 26352U 00022A   09077.10182052  .00000084  00000-0  10000-3 0  2308
2 26352   0.2123  88.5896 0002800 228.4351 119.8584  1.00268376 32494
COSPAS 9 (NADEZHDA 6)   
1 26384U 00033A   09078.13471137 -.00000044  00000-0  11823-5 0  5614
2 26384  98.4032 106.9772 0016550 134.3549 225.9013 14.64099973465772
SARSAT 8 (NOAA 16)      
1 26536U 00055A   09078.19065824  .00000295  00000-0  18482-3 0  3313
2 26536  99.1769  79.6832 0010720 169.8306 190.3102 14.12514234437594
GOES 12                 
1 26871U 01031A   09078.29730869 -.00000257  00000-0  10000-3 0  9794
2 26871   0.2069 260.1018 0002856 139.4052 169.6354  1.00278453 28101
SARSAT 9 (NOAA 17)      
1 27453U 02032A   09078.48707851  .00000128  00000-0  74155-4 0  3409
2 27453  98.4936 140.6078 0012004  30.9062 329.2821 14.24049206349987
MSG-1                   
1 27509U 02040B   09077.88121765  .00000056  00000-0  10000-3 0  1908
2 27509   0.4902  14.0528 0002601 306.2909 182.7951  1.00267880 24098
INSAT 3A                
1 27714U 03013A   09078.81357877 -.00000264  00000-0  10000-3 0  5317
2 27714   0.0020 281.2422 0003215 125.3872 157.2085  1.00270804 21806
SARSAT 10 (NOAA 18)     
1 28654U 05018A   09078.50243110 -.00000117  00000-0 -39996-4 0  8304
2 28654  98.8996  22.4712 0013374 256.4490 103.5193 14.11241202197302
MSG-2                   
1 28912U 05049B   09076.86079543 -.00000013  00000-0  10000-3 0  4774
2 28912   0.3955 129.8660 0001980 182.2988 172.8562  1.00271802 11930
SARSAT 11 (METOP-A)     
1 29499U 06044A   09078.43607990 -.00000140  00000-0 -43919-4 0  7590
2 29499  98.6967 139.9640 0001044  97.1818 262.9502 14.21494415125262
